{
  "norad_id": 61636,
  "name": "STARLINK-32405",
  "history": [
    {
      "epoch": "2026-03-28T14:19:32.053728Z",
      "apogee_km": 483.80886294166794,
      "perigee_km": 482.27744753101797,
      "latitude_deg": 1.2804666809788182e-05,
      "longitude_deg": 10.67069037039267,
      "height_km": 482.81022362296676,
      "semi_major_axis_km": 6861.180155236342,
      "eccentricity": 0.0001116,
      "inclination_deg": 43.0058,
      "raan_deg": 51.5693,
      "arg_perigee_deg": 270.7512,
      "mean_anomaly_deg": 89.3212,
      "mean_motion_rev_day": 15.27581984
    }
  ]
}