{"fetched_at":"2026-03-29T16:36:15Z","count":15609,"tles":[{"name":"STARLINK-32405","line1":"1 61636U 24191R   26087.59689877  .00000945  00000+0  43874-4 0  9998","line2":"2 61636  43.0058  51.5693 0001116 270.7512  89.3212 15.27581984 80380","category":"Starlink"}]}